NORAD_CAT_ID,OBJECT_NAME,OBJECT_TYPE,EPOCH,MEAN_MOTION,ECCENTRICITY,INCLINATION,RA_OF_ASC_NODE,ARG_OF_PERICENTER,MEAN_ANOMALY,BSTAR,MEAN_MOTION_DOT,MEAN_MOTION_DDOT,TLE_LINE0,TLE_LINE1,TLE_LINE2,SEMIMAJOR_AXIS,PERIOD,APOGEE,PERIGEE,DECAYED
53408.0,STARLINK-4491,PAYLOAD,2022-08-27 14:00:01,15.73181708,0.0001139,53.2201,161.9928,70.5028,196.316,0.00039202,0.00054713,0.0,0 STARLINK-4491,1 53408U 22097W   22239.58334491  .00054713  00000-0  39202-3 0  9994,2 53408  53.2201 161.9928 0001139  70.5028 196.3160 15.73181708  1308,6727.946999999999,91.534,350.579,349.046,0.0
53408.0,STARLINK-4491,PAYLOAD,2022-08-27 20:00:01,15.73254363,0.000111,53.2204,160.7557,74.7793,168.7228,-0.0004638999999999,-0.0006537,0.0,0 STARLINK-4491,1 53408U 22097W   22239.83334491 -.00065370  00000-0 -46390-3 0  9991,2 53408  53.2204 160.7557 0001110  74.7793 168.7228 15.73254363  3207,6727.74,91.53,350.352,348.858,0.0
53408.0,STARLINK-4491,PAYLOAD,2022-08-27 22:00:00,15.73266849,0.0001111,53.2204,160.3439,69.0186,286.7225,-0.00082796,-0.00115562,0.0,0 STARLINK-4491,1 53408U 22097W   22239.91667824 -.00115562  00000-0 -82796-3 0  9998,2 53408  53.2204 160.3439 0001111  69.0186 286.7225 15.73266849  1305,6727.705,91.529,350.31699999999995,348.82199999999995,0.0
53408.0,STARLINK-4491,PAYLOAD,2022-08-28 14:00:01,15.731705599999998,0.0001176,53.2198,157.0446,71.813,101.8353,0.00027573,0.00038204,0.0,0 STARLINK-4491,1 53408U 22097W   22240.58334491  .00038204  00000-0  27573-3 0  9991,2 53408  53.2198 157.0446 0001176  71.8130 101.8353 15.73170560  3326,6727.979,91.535,350.635,349.05300000000005,0.0
53408.0,STARLINK-4491,PAYLOAD,2022-08-28 22:00:00,15.7320538,0.0001222,53.2199,155.3964,72.7551,189.7863,3.3321e-05,4.06e-05,0.0,0 STARLINK-4491,1 53408U 22097W   22240.91667824  .00004060  00000-0  33321-4 0  9999,2 53408  53.2199 155.3964 0001222  72.7551 189.7863 15.73205380  1308,6727.88,91.533,350.56699999999995,348.923,0.0
53408.0,STARLINK-4491,PAYLOAD,2022-08-29 14:00:01,15.73157128,0.0001295,53.22,152.0967,77.7923,2.6527,0.00052514,0.00073592,0.0,0 STARLINK-4491,1 53408U 22097W   22241.58334491  .00073592  00000-0  52514-3 0  9994,2 53408  53.2200 152.0967 0001295  77.7923   2.6527 15.73157128  1302,6728.017,91.536,350.754,349.011,0.0
53408.0,STARLINK-4491,PAYLOAD,2022-08-29 16:00:00,15.73167004,0.0001339,53.2199,151.6839,78.199,114.47,0.00060655,0.00085252,0.0,0 STARLINK-4491,1 53408U 22097W   22241.66667824  .00085252  00000-0  60655-3 0  9993,2 53408  53.2199 151.6839 0001339  78.1990 114.4700 15.73167004  3491,6727.989000000001,91.535,350.755,348.95300000000015,0.0
53408.0,STARLINK-4491,PAYLOAD,2022-08-29 22:00:00,15.73250695,0.0001371,53.2202,150.4482,74.1947,95.1542,-0.00049066,-0.00069067,0.0,0 STARLINK-4491,1 53408U 22097W   22241.91667824 -.00069067  00000-0 -49066-3 0  9992,2 53408  53.2202 150.4482 0001371  74.1947  95.1542 15.73250695  1307,6727.751,91.53,350.538,348.6930000000001,0.0
53408.0,STARLINK-4491,PAYLOAD,2022-08-30 06:00:00,15.73163766,0.0001259,53.2197,148.7998,62.87300000000001,195.4377,0.00041622,0.00058107,0.0,0 STARLINK-4491,1 53408U 22097W   22242.25001157  .00058107  00000-0  41622-3 0  9992,2 53408  53.2197 148.7998 0001259  62.8730 195.4377 15.73163766  3585,6727.998000000001,91.535,350.711,349.016,0.0
53408.0,STARLINK-4491,PAYLOAD,2022-08-30 14:00:01,15.73204846,0.0001149,53.2196,147.1485,74.9021,272.3243,3.1901e-05,3.86e-05,0.0,0 STARLINK-4491,1 53408U 22097W   22242.58334491  .00003860  00000-0  31901-4 0  9994,2 53408  53.2196 147.1485 0001149  74.9021 272.3243 15.73204846  1303,6727.880999999999,91.533,350.519,348.973,0.0
53408.0,STARLINK-4491,PAYLOAD,2022-08-30 22:00:00,15.73212696,0.0001186,53.2195,145.5004,71.9912,4.171,-0.00089058,-0.00123848,0.0,0 STARLINK-4491,1 53408U 22097W   22242.91667824 -.00123848  00000-0 -89058-3 0  9996,2 53408  53.2195 145.5004 0001186  71.9912   4.1710 15.73212696  1300,6727.859,91.532,350.522,348.926,0.0
53408.0,STARLINK-4491,PAYLOAD,2022-08-31 14:00:01,15.73134753,9.89e-05,53.2194,142.2005,75.2302,178.69299999999996,0.00062982,0.00088457,0.0,0 STARLINK-4491,1 53408U 22097W   22243.58334491  .00088457  00000-0  62982-3 0  9992,2 53408  53.2194 142.2005 0000989  75.2302 178.6930 15.73134753  1302,6728.081,91.537,350.612,349.281,0.0
53408.0,STARLINK-4491,PAYLOAD,2022-08-31 22:00:00,15.73201688,0.0001114,53.2196,140.5524,69.5058,273.29400000000004,7.6269000000000015e-06,4.51e-06,0.0,0 STARLINK-4491,1 53408U 22097W   22243.91667824  .00000451  00000-0  76269-5 0  9991,2 53408  53.2196 140.5524 0001114  69.5058 273.2940 15.73201688  1301,6727.89,91.533,350.505,349.006,0.0
53408.0,STARLINK-4491,PAYLOAD,2022-09-01 06:00:00,15.73211657,0.0001141,53.2192,138.9036,60.694,11.036,0.00031604,0.00043988,0.0,0 STARLINK-4491,1 53408U 22097W   22244.25001157  .00043988  00000-0  31604-3 0  9994,2 53408  53.2192 138.9036 0001141  60.6940  11.0360 15.73211657  3907,6727.861999999999,91.533,350.495,348.959,0.0
53408.0,STARLINK-4491,PAYLOAD,2022-09-01 14:00:01,15.73248367,0.0001094,53.2191,137.2522,76.4014,84.3595,-9.0353e-05,-0.00013306,0.0,0 STARLINK-4491,1 53408U 22097W   22244.58335648 -.00013306  00000-0 -90353-4 0  9995,2 53408  53.2191 137.2522 0001094  76.4014  84.3595 15.73248367  1305,6727.757,91.53,350.358,348.886,0.0
53408.0,STARLINK-4491,PAYLOAD,2022-09-01 22:00:00,15.73222377,0.0001291,53.2191,135.6043,71.8544,177.8275,0.00010409,0.00014026,0.0,0 STARLINK-4491,1 53408U 22097W   22244.91667824  .00014026  00000-0  10409-3 0  9997,2 53408  53.2191 135.6043 0001291  71.8544 177.8275 15.73222377  4007,6727.831,91.532,350.565,348.82800000000015,0.0
53408.0,STARLINK-4491,PAYLOAD,2022-09-02 14:00:01,15.73196296,0.0001046,53.2192,132.3037,76.8848,350.7199,5.270600000000001e-05,6.782e-05,0.0,0 STARLINK-4491,1 53408U 22097W   22245.58334491  .00006782  00000-0  52706-4 0  9999,2 53408  53.2192 132.3037 0001046  76.8848 350.7199 15.73196296  4114,6727.906,91.533,350.474,349.06699999999995,0.0
53408.0,STARLINK-4491,PAYLOAD,2022-09-02 22:00:01,15.73181862,0.0001236,53.2193,130.6558,69.0831,87.5207,-0.00014959,-0.00021543,0.0,0 STARLINK-4491,1 53408U 22097W   22245.91668981 -.00021543  00000-0 -14959-3 0  9991,2 53408  53.2193 130.6558 0001236  69.0831  87.5207 15.73181862  1307,6727.946999999999,91.534,350.64300000000014,348.98,0.0
53408.0,STARLINK-4491,PAYLOAD,2022-09-03 14:00:01,15.73204974,0.0001088999999999,53.2193,127.3556,77.4505,256.9364,0.00060034,0.00084502,0.0,0 STARLINK-4491,1 53408U 22097W   22246.58334491  .00084502  00000-0  60034-3 0  9998,2 53408  53.2193 127.3556 0001089  77.4505 256.9364 15.73204974  1301,6727.880999999999,91.533,350.47900000000016,349.01300000000015,0.0
53408.0,STARLINK-4491,PAYLOAD,2022-09-03 22:00:00,15.73266557,0.0001019,53.219,125.7082,66.6586,356.7006,-0.00046826,-0.00066008,0.0,0 STARLINK-4491,1 53408U 22097W   22246.91667824 -.00066008  00000-0 -46826-3 0  9990,2 53408  53.2190 125.7082 0001019  66.6586 356.7006 15.73266557  1303,6727.705,91.529,350.256,348.885,0.0
53408.0,STARLINK-4491,PAYLOAD,2022-09-04 14:00:01,15.73202527,0.0001074,53.2193,122.4072,77.8344,163.5505,0.00027648,0.00038363,0.0,0 STARLINK-4491,1 53408U 22097W   22247.58335648  .00038363  00000-0  27648-3 0  9992,2 53408  53.2193 122.4072 0001074  77.8344 163.5505 15.73202527  4427,6727.888000000001,91.533,350.476,349.03,0.0
53408.0,STARLINK-4491,PAYLOAD,2022-09-04 20:00:01,15.73260786,0.0001236,53.2193,121.1717,73.9039,144.1189,-0.00095629,-0.00133071,0.0,0 STARLINK-4491,1 53408U 22097W   22247.83334491 -.00133071  00000-0 -95629-3 0  9993,2 53408  53.2193 121.1717 0001236  73.9039 144.1189 15.73260786  1305,6727.722,91.53,350.418,348.755,0.0
53408.0,STARLINK-4491,PAYLOAD,2022-09-05 14:00:01,15.73199464,0.0001254,53.2178,117.4593,79.0886,69.1359,-0.00017492,-0.00025095,0.0,0 STARLINK-4491,1 53408U 22097W   22248.58334491 -.00025095  00000-0 -17492-3 0  9994,2 53408  53.2178 117.4593 0001254  79.0886  69.1359 15.73199464  4587,6727.897,91.533,350.605,348.918,0.0
53408.0,STARLINK-4491,PAYLOAD,2022-09-05 22:00:00,15.73181768,0.0001391,53.2176,115.8123,69.7894,167.3537,-0.00035704,-0.0005038999999999,0.0,0 STARLINK-4491,1 53408U 22097W   22248.91667824 -.00050390  00000-0 -35704-3 0  9992,2 53408  53.2176 115.8123 0001391  69.7894 167.3537 15.73181768  1307,6727.946999999999,91.534,350.74800000000016,348.876,0.0
53408.0,STARLINK-4491,PAYLOAD,2022-09-06 06:00:00,15.73135707,0.0001157,53.2174,114.1624,67.8191,258.1389,-1.0945e-05,-2.15e-05,0.0,0 STARLINK-4491,1 53408U 22097W   22249.25001157 -.00002150  00000-0 -10945-4 0  9993,2 53408  53.2174 114.1624 0001157  67.8191 258.1389 15.73135707  4682,6728.078,91.537,350.722,349.165,0.0
53408.0,STARLINK-4491,PAYLOAD,2022-09-06 14:00:01,15.73128344,9.940000000000004e-05,53.2178,112.5116,79.2686,335.5437,-3.5626e-05,-5.600000000000001e-05,0.0,0 STARLINK-4491,1 53408U 22097W   22249.58334491 -.00005600  00000-0 -35626-4 0  9995,2 53408  53.2178 112.5116 0000994  79.2686 335.5437 15.73128344  1307,6728.099,91.537,350.6330000000001,349.296,0.0
53408.0,STARLINK-4491,PAYLOAD,2022-09-06 20:00:01,15.73141687,9.45e-05,53.2179,111.2763,66.5687,324.8947,0.00014009,0.00019037,0.0,0 STARLINK-4491,1 53408U 22097W   22249.83334491  .00019037  00000-0  14009-3 0  9991,2 53408  53.2179 111.2763 0000945  66.5687 324.8947 15.73141687  4774,6728.061,91.537,350.56199999999984,349.291,0.0
53408.0,STARLINK-4491,PAYLOAD,2022-09-06 22:00:00,15.73131394,9.85e-05,53.2178,110.8643,61.722,81.9538,0.00028501,0.0003945,0.0,0 STARLINK-4491,1 53408U 22097W   22249.91667824  .00039450  00000-0  28501-3 0  9992,2 53408  53.2178 110.8643 0000985  61.7220  81.9538 15.73131394  1306,6728.090999999999,91.537,350.61800000000005,349.293,0.0
53408.0,STARLINK-4491,PAYLOAD,2022-09-07 14:00:01,15.73186604,8.82e-05,53.2178,107.5639,72.315,249.1249,0.0005248,0.00073637,0.0,0 STARLINK-4491,1 53408U 22097W   22250.58334491  .00073637  00000-0  52480-3 0  9996,2 53408  53.2178 107.5639 0000882  72.3150 249.1249 15.73186604  4898,6727.933000000001,91.534,350.392,349.205,0.0
